{
    "links": {
        "self": "http://www.neowsapp.com/rest/v1/neo/3819570?api_key=iIulBulltgU6a56xZRHN4H3l9WmuAYTsLGpBGhQ2"
    },
    "id": "3819570",
    "neo_reference_id": "3819570",
    "name": "(2018 HK2)",
    "designation": "2018 HK2",
    "nasa_jpl_url": "http://ssd.jpl.nasa.gov/sbdb.cgi?sstr=3819570",
    "absolute_magnitude_h": 25.0,
    "estimated_diameter": {
        "kilometers": {
            "estimated_diameter_min": 0.02658,
            "estimated_diameter_max": 0.0594346868
        },
        "meters": {
            "estimated_diameter_min": 26.58,
            "estimated_diameter_max": 59.4346868419
        },
        "miles": {
            "estimated_diameter_min": 0.0165160412,
            "estimated_diameter_max": 0.0369309908
        },
        "feet": {
            "estimated_diameter_min": 87.2047272,
            "estimated_diameter_max": 194.9956979785
        }
    },
    "is_potentially_hazardous_asteroid": false,
    "close_approach_data": [
        {
            "close_approach_date": "2011-04-06",
            "close_approach_date_full": "2011-Apr-06 01:48",
            "epoch_date_close_approach": 1302054480000,
            "relative_velocity": {
                "kilometers_per_second": "18.7084603594",
                "kilometers_per_hour": "67350.4572937781",
                "miles_per_hour": "41848.9549779034"
            },
            "miss_distance": {
                "astronomical": "0.4191459675",
                "lunar": "163.0477813575",
                "kilometers": "62703343.957089225",
                "miles": "38962051.240612305"
            },
            "orbiting_body": "Earth"
        },
        {
            "close_approach_date": "2018-04-29",
            "close_approach_date_full": "2018-Apr-29 05:06",
            "epoch_date_close_approach": 1524978360000,
            "relative_velocity": {
                "kilometers_per_second": "8.8878868207",
                "kilometers_per_hour": "31996.3925544609",
                "miles_per_hour": "19881.3140291871"
            },
            "miss_distance": {
                "astronomical": "0.0601659368",
                "lunar": "23.4045494152",
                "kilometers": "9000695.991834616",
                "miles": "5592773.1489890608"
            },
            "orbiting_body": "Earth"
        }
    ],
    "orbital_data": {
        "orbit_id": "1",
        "orbit_determination_date": "2018-04-26 08:42:10",
        "first_observation_date": "2018-04-12",
        "last_observation_date": "2018-04-26",
        "data_arc_in_days": 14,
        "observations_used": 17,
        "orbit_uncertainty": "7",
        "minimum_orbit_intersection": ".0557111",
        "jupiter_tisserand_invariant": "4.540",
        "epoch_osculation": "2459000.5",
        "eccentricity": ".3051940039612769",
        "semi_major_axis": "1.461952633972576",
        "inclination": "13.7487577463102",
        "ascending_node_longitude": "30.22366743050021",
        "orbital_period": "645.6518206043331",
        "perihelion_distance": "1.01577345600875",
        "perihelion_argument": "219.2555382635431",
        "aphelion_distance": "1.908131811936401",
        "perihelion_time": "2458913.166129736979",
        "mean_anomaly": "48.69527552057312",
        "mean_motion": ".5575760626881503",
        "equinox": "J2000",
        "orbit_class": {
            "orbit_class_type": "APO",
            "orbit_class_description": "Near-Earth asteroid orbits which cross the Earth’s orbit similar to that of 1862 Apollo",
            "orbit_class_range": "a (semi-major axis) > 1.0 AU; q (perihelion) < 1.017 AU"
        }
    },
    "is_sentry_object": false
}